<?xml version="1.0" encoding="UTF-8"?><gpx version="1.1" creator="MapsPrototype" xmlns="http://www.topografix.com/GPX/1/1"><trk><name>서울숲 검증용 합성 경로</name><trkseg><trkpt lat="37.544" lon="127.036"/><trkpt lat="37.5448" lon="127.037"/><trkpt lat="37.5454" lon="127.0382"/><trkpt lat="37.5452" lon="127.0395"/><trkpt lat="37.5443" lon="127.04"/><trkpt lat="37.5436" lon="127.0393"/><trkpt lat="37.5433" lon="127.038"/><trkpt lat="37.5435" lon="127.0368"/><trkpt lat="37.544" lon="127.036"/></trkseg></trk></gpx>